start=new Date('2022-03-19T00:00:00.000Z').valueOf();
sats=[{"ELEMENT_SET_NO":"999","NORAD_CAT_ID":"47880","RCS_SIZE":"LARGE","SITE":"AFETR","BSTAR":"0.00079229000000","COUNTRY_CODE":"US","ARG_OF_PERICENTER":"45.1753","CLASSIFICATION_TYPE":"U","RA_OF_ASC_NODE":"318.8313","OBJECT_NAME":"STARLINK-2337","SEMIMAJOR_AXIS":"6925.315","REV_AT_EPOCH":"5723","MEAN_ELEMENT_THEORY":"SGP4","OBJECT_TYPE":"PAYLOAD","GP_ID":"199103923","FILE":"3364757","OBJECT_ID":"2021-021W","PERIAPSIS":"545.822","INCLINATION":"53.0566","TLE_LINE2":"2 47880  53.0566 318.8313 0001960  45.1753 314.9395 15.06411069 57236","MEAN_MOTION":"15.06411069","PERIOD":"95.591","ECCENTRICITY":"0.00019600","EPOCH":"2022-03-18T22:11:19.576032","EPHEMERIS_TYPE":"0","LAUNCH_DATE":"2021-03-14","TIME_SYSTEM":"UTC","APOAPSIS":"548.537","REF_FRAME":"TEME","CENTER_NAME":"EARTH","MEAN_MOTION_DOT":"0.00011543","TLE_LINE1":"1 47880U 21021W   22077.92453213  .00011543  00000-0  79229-3 0  9996","MEAN_ANOMALY":"314.9395","MEAN_MOTION_DDOT":"0.0000000000000","DECAY_DATE":null},{"COUNTRY_CODE":"US","ARG_OF_PERICENTER":"72.7476","RA_OF_ASC_NODE":"319.0332","CLASSIFICATION_TYPE":"U","OBJECT_NAME":"STARLINK-2339","SITE":"AFETR","BSTAR":"0.00097661000000","RCS_SIZE":"LARGE","NORAD_CAT_ID":"47881","ELEMENT_SET_NO":"999","PERIOD":"95.591","PERIAPSIS":"546.151","OBJECT_ID":"2021-021X","INCLINATION":"53.0568","TLE_LINE2":"2 47881  53.0568 319.0332 0001445  72.7476 287.3671 15.06420120 57192","MEAN_MOTION":"15.06420120","REV_AT_EPOCH":"5719","MEAN_ELEMENT_THEORY":"SGP4","OBJECT_TYPE":"PAYLOAD","FILE":"3364757","GP_ID":"199103184","SEMIMAJOR_AXIS":"6925.287","MEAN_MOTION_DOT":"0.00014303","CENTER_NAME":"EARTH","TIME_SYSTEM":"UTC","REF_FRAME":"TEME","APOAPSIS":"548.153","ECCENTRICITY":"0.00014450","EPOCH":"2022-03-18T21:12:55.389888","EPHEMERIS_TYPE":"0","LAUNCH_DATE":"2021-03-14","DECAY_DATE":null,"MEAN_ANOMALY":"287.3671","TLE_LINE1":"1 47881U 21021X   22077.88397442  .00014303  00000-0  97661-3 0  9990","MEAN_MOTION_DDOT":"0.0000000000000"},{"EPHEMERIS_TYPE":"0","EPOCH":"2022-03-18T22:12:37.743840","ECCENTRICITY":"0.00016460","LAUNCH_DATE":"2021-03-14","TIME_SYSTEM":"UTC","APOAPSIS":"548.294","REF_FRAME":"TEME","CENTER_NAME":"EARTH","MEAN_MOTION_DOT":"0.00010485","TLE_LINE1":"1 47882U 21021Y   22077.92543685  .00010485  00000-0  72135-3 0  9994","MEAN_ANOMALY":"284.0119","MEAN_MOTION_DDOT":"0.0000000000000","DECAY_DATE":null,"NORAD_CAT_ID":"47882","ELEMENT_SET_NO":"999","RCS_SIZE":"LARGE","SITE":"AFETR","BSTAR":"0.00072135000000","COUNTRY_CODE":"US","CLASSIFICATION_TYPE":"U","RA_OF_ASC_NODE":"308.8398","OBJECT_NAME":"STARLINK-2340","ARG_OF_PERICENTER":"76.1053","SEMIMAJOR_AXIS":"6925.290","MEAN_ELEMENT_THEORY":"SGP4","REV_AT_EPOCH":"5754","GP_ID":"199103434","FILE":"3364757","OBJECT_TYPE":"PAYLOAD","TLE_LINE2":"2 47882  53.0553 308.8398 0001646  76.1053 284.0119 15.06419261 57541","OBJECT_ID":"2021-021Y","PERIAPSIS":"546.015","INCLINATION":"53.0553","MEAN_MOTION":"15.06419261","PERIOD":"95.591"},{"OBJECT_TYPE":"PAYLOAD","GP_ID":"199103685","FILE":"3364757","MEAN_ELEMENT_THEORY":"SGP4","REV_AT_EPOCH":"5747","SEMIMAJOR_AXIS":"6925.287","PERIOD":"95.591","MEAN_MOTION":"15.06420150","OBJECT_ID":"2021-021Z","PERIAPSIS":"546.183","INCLINATION":"53.0537","TLE_LINE2":"2 47883  53.0537 313.9732 0001399  59.3955 300.7172 15.06420150 57478","RCS_SIZE":"LARGE","ELEMENT_SET_NO":"999","NORAD_CAT_ID":"47883","ARG_OF_PERICENTER":"59.3955","RA_OF_ASC_NODE":"313.9732","CLASSIFICATION_TYPE":"U","OBJECT_NAME":"STARLINK-2342","COUNTRY_CODE":"US","BSTAR":"0.00059616000000","SITE":"AFETR","MEAN_MOTION_DDOT":"0.0000000000000","TLE_LINE1":"1 47883U 21021Z   22077.89733849  .00008614  00000-0  59616-3 0  9994","MEAN_ANOMALY":"300.7172","DECAY_DATE":null,"REF_FRAME":"TEME","APOAPSIS":"548.121","TIME_SYSTEM":"UTC","LAUNCH_DATE":"2021-03-14","ECCENTRICITY":"0.00013990","EPOCH":"2022-03-18T21:32:10.045536","EPHEMERIS_TYPE":"0","MEAN_MOTION_DOT":"0.00008614","CENTER_NAME":"EARTH"},{"PERIOD":"95.592","MEAN_MOTION":"15.06403072","OBJECT_ID":"2021-021AA","PERIAPSIS":"546.104","INCLINATION":"53.0557","TLE_LINE2":"2 47884  53.0557 319.0485 0001589  61.8096 298.3054 15.06403072 57226","OBJECT_TYPE":"PAYLOAD","GP_ID":"199104423","FILE":"3364757","MEAN_ELEMENT_THEORY":"SGP4","REV_AT_EPOCH":"5722","SEMIMAJOR_AXIS":"6925.339","ARG_OF_PERICENTER":"61.8096","RA_OF_ASC_NODE":"319.0485","CLASSIFICATION_TYPE":"U","OBJECT_NAME":"STARLINK-2343","COUNTRY_CODE":"US","BSTAR":"0.00038996000000","SITE":"AFETR","RCS_SIZE":"LARGE","ELEMENT_SET_NO":"999","NORAD_CAT_ID":"47884","DECAY_DATE":null,"MEAN_MOTION_DDOT":"0.0000000000000","TLE_LINE1":"1 47884U 21021AA  22077.88027283  .00005532  00000-0  38996-3 0  9996","MEAN_ANOMALY":"298.3054","MEAN_MOTION_DOT":"0.00005532","CENTER_NAME":"EARTH","APOAPSIS":"548.305","REF_FRAME":"TEME","TIME_SYSTEM":"UTC","LAUNCH_DATE":"2021-03-14","ECCENTRICITY":"0.00015890","EPOCH":"2022-03-18T21:07:35.572512","EPHEMERIS_TYPE":"0"},{"TLE_LINE1":"1 47885U 21021AB  22077.87428518  .00004205  00000-0  30095-3 0  9990","MEAN_ANOMALY":"298.9055","MEAN_MOTION_DDOT":"0.0000000000000","DECAY_DATE":null,"ECCENTRICITY":"0.00015880","EPOCH":"2022-03-18T20:58:58.239552","EPHEMERIS_TYPE":"0","LAUNCH_DATE":"2021-03-14","TIME_SYSTEM":"UTC","REF_FRAME":"TEME","APOAPSIS":"548.284","CENTER_NAME":"EARTH","MEAN_MOTION_DOT":"0.00004205","SEMIMAJOR_AXIS":"6925.319","MEAN_ELEMENT_THEORY":"SGP4","REV_AT_EPOCH":"5731","OBJECT_TYPE":"PAYLOAD","FILE":"3364757","GP_ID":"199102685","OBJECT_ID":"2021-021AB","PERIAPSIS":"546.084","INCLINATION":"53.0551","TLE_LINE2":"2 47885  53.0551 324.0666 0001588  61.2093 298.9055 15.06409674 57319","MEAN_MOTION":"15.06409674","PERIOD":"95.592","ELEMENT_SET_NO":"999","NORAD_CAT_ID":"47885","RCS_SIZE":"LARGE","SITE":"AFETR","BSTAR":"0.00030095000000","COUNTRY_CODE":"US","ARG_OF_PERICENTER":"61.2093","CLASSIFICATION_TYPE":"U","RA_OF_ASC_NODE":"324.0666","OBJECT_NAME":"STARLINK-2344"},{"MEAN_MOTION":"15.06409019","PERIAPSIS":"546.089","INCLINATION":"53.0556","OBJECT_ID":"2021-021AC","TLE_LINE2":"2 47886  53.0556 314.0776 0001584  52.2863 307.8270 15.06409019 57308","PERIOD":"95.592","SEMIMAJOR_AXIS":"6925.321","OBJECT_TYPE":"PAYLOAD","FILE":"3364757","GP_ID":"199102935","MEAN_ELEMENT_THEORY":"SGP4","REV_AT_EPOCH":"5730","BSTAR":"0.00066514000000","SITE":"AFETR","ARG_OF_PERICENTER":"52.2863","RA_OF_ASC_NODE":"314.0776","CLASSIFICATION_TYPE":"U","OBJECT_NAME":"STARLINK-2345","COUNTRY_CODE":"US","ELEMENT_SET_NO":"999","NORAD_CAT_ID":"47886","RCS_SIZE":"LARGE","DECAY_DATE":null,"MEAN_MOTION_DDOT":"0.0000000000000","MEAN_ANOMALY":"307.8270","TLE_LINE1":"1 47886U 21021AC  22077.87426850  .00009642  00000-0  66514-3 0  9993","CENTER_NAME":"EARTH","MEAN_MOTION_DOT":"0.00009642","LAUNCH_DATE":"2021-03-14","ECCENTRICITY":"0.00015840","EPOCH":"2022-03-18T20:58:56.798400","EPHEMERIS_TYPE":"0","REF_FRAME":"TEME","APOAPSIS":"548.283","TIME_SYSTEM":"UTC"},{"REV_AT_EPOCH":"5723","MEAN_ELEMENT_THEORY":"SGP4","GP_ID":"199104185","FILE":"3364757","OBJECT_TYPE":"PAYLOAD","SEMIMAJOR_AXIS":"6925.340","PERIOD":"95.592","TLE_LINE2":"2 47887  53.0536 318.9632 0001527  72.5691 287.5465 15.06402856 57236","PERIAPSIS":"546.147","OBJECT_ID":"2021-021AD","INCLINATION":"53.0536","MEAN_MOTION":"15.06402856","RCS_SIZE":"LARGE","ELEMENT_SET_NO":"999","NORAD_CAT_ID":"47887","COUNTRY_CODE":"US","RA_OF_ASC_NODE":"318.9632","CLASSIFICATION_TYPE":"U","OBJECT_NAME":"STARLINK-2346","ARG_OF_PERICENTER":"72.5691","SITE":"AFETR","BSTAR":"0.00061255000000","TLE_LINE1":"1 47887U 21021AD  22077.89872612  .00008855  00000-0  61255-3 0  9999","MEAN_ANOMALY":"287.5465","MEAN_MOTION_DDOT":"0.0000000000000","DECAY_DATE":null,"TIME_SYSTEM":"UTC","APOAPSIS":"548.262","REF_FRAME":"TEME","EPHEMERIS_TYPE":"0","EPOCH":"2022-03-18T21:34:09.936768","ECCENTRICITY":"0.00015270","LAUNCH_DATE":"2021-03-14","MEAN_MOTION_DOT":"0.00008855","CENTER_NAME":"EARTH"},{"MEAN_ANOMALY":"304.1062","TLE_LINE1":"1 47888U 21021AE  22077.92176895  .00003792  00000-0  27335-3 0  9990","MEAN_MOTION_DDOT":"0.0000000000000","DECAY_DATE":null,"TIME_SYSTEM":"UTC","APOAPSIS":"548.292","REF_FRAME":"TEME","EPHEMERIS_TYPE":"0","EPOCH":"2022-03-18T22:07:20.837280","ECCENTRICITY":"0.00015320","LAUNCH_DATE":"2021-03-14","MEAN_MOTION_DOT":"0.00003792","CENTER_NAME":"EARTH","MEAN_ELEMENT_THEORY":"SGP4","REV_AT_EPOCH":"5738","FILE":"3364757","GP_ID":"199103924","OBJECT_TYPE":"PAYLOAD","SEMIMAJOR_AXIS":"6925.366","PERIOD":"95.592","TLE_LINE2":"2 47888  53.0553 308.8600 0001532  56.0072 304.1062 15.06394443 57382","PERIAPSIS":"546.170","INCLINATION":"53.0553","OBJECT_ID":"2021-021AE","MEAN_MOTION":"15.06394443","RCS_SIZE":"LARGE","NORAD_CAT_ID":"47888","ELEMENT_SET_NO":"999","COUNTRY_CODE":"US","OBJECT_NAME":"STARLINK-2348","CLASSIFICATION_TYPE":"U","RA_OF_ASC_NODE":"308.8600","ARG_OF_PERICENTER":"56.0072","SITE":"AFETR","BSTAR":"0.00027335000000"},{"OBJECT_TYPE":"PAYLOAD","FILE":"3364757","GP_ID":"199103185","MEAN_ELEMENT_THEORY":"SGP4","REV_AT_EPOCH":"5742","SEMIMAJOR_AXIS":"6925.333","PERIOD":"95.592","MEAN_MOTION":"15.06405089","PERIAPSIS":"545.805","OBJECT_ID":"2021-021AF","INCLINATION":"53.0548","TLE_LINE2":"2 47889  53.0548 309.1111 0002012  55.9607 304.1573 15.06405089 57425","RCS_SIZE":"LARGE","ELEMENT_SET_NO":"999","NORAD_CAT_ID":"47889","ARG_OF_PERICENTER":"55.9607","OBJECT_NAME":"STARLINK-2349","CLASSIFICATION_TYPE":"U","RA_OF_ASC_NODE":"309.1111","COUNTRY_CODE":"US","BSTAR":"0.00079625000000","SITE":"AFETR","MEAN_MOTION_DDOT":"0.0000000000000","TLE_LINE1":"1 47889U 21021AF  22077.86648017  .00011600  00000-0  79625-3 0  9990","MEAN_ANOMALY":"304.1573","DECAY_DATE":null,"APOAPSIS":"548.591","REF_FRAME":"TEME","TIME_SYSTEM":"UTC","LAUNCH_DATE":"2021-03-14","ECCENTRICITY":"0.00020120","EPOCH":"2022-03-18T20:47:43.886688","EPHEMERIS_TYPE":"0","MEAN_MOTION_DOT":"0.00011600","CENTER_NAME":"EARTH"}];
